[{"OBJECT_NAME":"STARLINK-31492","OBJECT_ID":"2024-046M","EPOCH":"2026-03-09T22:33:53.853696","MEAN_MOTION":15.30189057,"ECCENTRICITY":9.53e-5,"INCLINATION":53.1606,"RA_OF_ASC_NODE":154.4719,"ARG_OF_PERICENTER":94.1692,"MEAN_ANOMALY":265.9417,"EPHEMERIS_TYPE":0,"CLASSIFICATION_TYPE":"U","NORAD_CAT_ID":59212,"ELEMENT_SET_NO":999,"REV_AT_EPOCH":11307,"BSTAR":1.055016e-5,"MEAN_MOTION_DOT":-4.7e-7,"MEAN_MOTION_DDOT":0},{"OBJECT_NAME":"NUSHSAT1","OBJECT_ID":"2025-052B","EPOCH":"2026-03-09T15:31:41.225952","MEAN_MOTION":15.31903202,"ECCENTRICITY":0.0005501,"INCLINATION":97.4095,"RA_OF_ASC_NODE":325.7239,"ARG_OF_PERICENTER":84.7512,"MEAN_ANOMALY":275.4357,"EPHEMERIS_TYPE":0,"CLASSIFICATION_TYPE":"U","NORAD_CAT_ID":63211,"ELEMENT_SET_NO":999,"REV_AT_EPOCH":5488,"BSTAR":0.00074857,"MEAN_MOTION_DOT":0.00023034,"MEAN_MOTION_DDOT":0}]
