STARLINK-31492          
1 59212U 24046M   26068.94020663 -.00000047  00000+0  10550-4 0  9993
2 59212  53.1606 154.4719 0000953  94.1692 265.9417 15.30189057113076
NUSHSAT1                
1 63211U 25052B   26068.64700493  .00023034  00000+0  74857-3 0  9997
2 63211  97.4095 325.7239 0005501  84.7512 275.4357 15.31903202 54882
